{
    "links": {
        "self": "http://www.neowsapp.com/rest/v1/neo/3370502?api_key=iIulBulltgU6a56xZRHN4H3l9WmuAYTsLGpBGhQ2"
    },
    "id": "3370502",
    "neo_reference_id": "3370502",
    "name": "(2007 EL26)",
    "designation": "2007 EL26",
    "nasa_jpl_url": "http://ssd.jpl.nasa.gov/sbdb.cgi?sstr=3370502",
    "absolute_magnitude_h": 23.2,
    "estimated_diameter": {
        "kilometers": {
            "estimated_diameter_min": 0.0608912622,
            "estimated_diameter_max": 0.1361570015
        },
        "meters": {
            "estimated_diameter_min": 60.8912622106,
            "estimated_diameter_max": 136.1570015386
        },
        "miles": {
            "estimated_diameter_min": 0.0378360645,
            "estimated_diameter_max": 0.0846040122
        },
        "feet": {
            "estimated_diameter_min": 199.7744887109,
            "estimated_diameter_max": 446.7093369279
        }
    },
    "is_potentially_hazardous_asteroid": false,
    "close_approach_data": [
        {
            "close_approach_date": "2007-03-06",
            "close_approach_date_full": "2007-Mar-06 09:37",
            "epoch_date_close_approach": 1173173820000,
            "relative_velocity": {
                "kilometers_per_second": "7.1899367706",
                "kilometers_per_hour": "25883.7723742853",
                "miles_per_hour": "16083.169562233"
            },
            "miss_distance": {
                "astronomical": "0.2031485178",
                "lunar": "79.0247734242",
                "kilometers": "30390585.556537086",
                "miles": "18883834.2098043468"
            },
            "orbiting_body": "Earth"
        }
    ],
    "orbital_data": {
        "orbit_id": "7",
        "orbit_determination_date": "2017-04-06 09:06:46",
        "first_observation_date": "2007-03-10",
        "last_observation_date": "2007-03-13",
        "data_arc_in_days": 3,
        "observations_used": 21,
        "orbit_uncertainty": "9",
        "minimum_orbit_intersection": ".163369",
        "jupiter_tisserand_invariant": "5.043",
        "epoch_osculation": "2454171.5",
        "eccentricity": ".115938866186908",
        "semi_major_axis": "1.27255627936253",
        "inclination": "13.77296369524416",
        "ascending_node_longitude": "344.3626074821017",
        "orbital_period": "524.3411283626715",
        "perihelion_distance": "1.125017547174208",
        "perihelion_argument": "229.3421193487583",
        "aphelion_distance": "1.420095011550852",
        "perihelion_time": "2454228.679706351802",
        "mean_anomaly": "320.7417896991462",
        "mean_motion": ".6865759341140192",
        "equinox": "J2000",
        "orbit_class": {
            "orbit_class_type": "AMO",
            "orbit_class_description": "Near-Earth asteroid orbits similar to that of 1221 Amor",
            "orbit_class_range": "1.017 AU < q (perihelion) < 1.3 AU"
        }
    },
    "is_sentry_object": false
}